start=new Date('2022-07-01T00:00:00.000Z').valueOf();
sats=[{"CENTER_NAME":"EARTH","MEAN_ANOMALY":"285.7122","FILE":"3505946","REF_FRAME":"TEME","ECCENTRICITY":"0.00014910","MEAN_MOTION":"15.06389861","TLE_LINE2":"2 45402  53.0557  67.2814 0001491  74.4032 285.7122 15.06389861126817","RA_OF_ASC_NODE":"67.2814","LAUNCH_DATE":"2020-03-18","CLASSIFICATION_TYPE":"U","ARG_OF_PERICENTER":"74.4032","REV_AT_EPOCH":"12681","MEAN_MOTION_DDOT":"0.0000000000000","OBJECT_TYPE":"PAYLOAD","SEMIMAJOR_AXIS":"6925.380","RCS_SIZE":"LARGE","SITE":"AFETR","NORAD_CAT_ID":"45402","EPOCH":"2022-06-30T20:27:59.314176","INCLINATION":"53.0557","ELEMENT_SET_NO":"999","APOAPSIS":"548.277","OBJECT_ID":"2020-019AU","PERIOD":"95.593","TLE_LINE1":"1 45402U 20019AU  22181.85276984  .00001362  00000-0  11037-3 0  9997","DECAY_DATE":null,"PERIAPSIS":"546.212","OBJECT_NAME":"STARLINK-1257","EPHEMERIS_TYPE":"0","TIME_SYSTEM":"UTC","GP_ID":"207173800","BSTAR":"0.00011037000000","MEAN_ELEMENT_THEORY":"SGP4","COUNTRY_CODE":"US","MEAN_MOTION_DOT":"0.00001362"},{"TLE_LINE1":"1 45403U 20019AV  22181.86846650  .00001054  00000-0  89671-4 0  9990","DECAY_DATE":null,"APOAPSIS":"548.445","OBJECT_ID":"2020-019AV","PERIOD":"95.593","ELEMENT_SET_NO":"999","INCLINATION":"53.0538","EPOCH":"2022-06-30T20:50:35.505600","MEAN_MOTION_DOT":"0.00001054","COUNTRY_CODE":"US","BSTAR":"0.00008967100000","MEAN_ELEMENT_THEORY":"SGP4","EPHEMERIS_TYPE":"0","TIME_SYSTEM":"UTC","OBJECT_NAME":"STARLINK-1259","GP_ID":"207174552","PERIAPSIS":"546.040","ARG_OF_PERICENTER":"66.9210","REV_AT_EPOCH":"12680","LAUNCH_DATE":"2020-03-18","CLASSIFICATION_TYPE":"U","TLE_LINE2":"2 45403  53.0538  67.2251 0001736  66.9210 293.1961 15.06390510126804","MEAN_MOTION":"15.06390510","RA_OF_ASC_NODE":"67.2251","ECCENTRICITY":"0.00017360","FILE":"3505946","REF_FRAME":"TEME","CENTER_NAME":"EARTH","MEAN_ANOMALY":"293.1961","NORAD_CAT_ID":"45403","SITE":"AFETR","RCS_SIZE":"LARGE","SEMIMAJOR_AXIS":"6925.378","OBJECT_TYPE":"PAYLOAD","MEAN_MOTION_DDOT":"0.0000000000000"},{"REF_FRAME":"TEME","FILE":"3505946","CENTER_NAME":"EARTH","MEAN_ANOMALY":"293.1832","ECCENTRICITY":"0.00015670","CLASSIFICATION_TYPE":"U","LAUNCH_DATE":"2020-03-18","RA_OF_ASC_NODE":"67.1800","MEAN_MOTION":"15.06398179","TLE_LINE2":"2 45404  53.0568  67.1800 0001567  66.9322 293.1832 15.06398179126719","REV_AT_EPOCH":"12671","ARG_OF_PERICENTER":"66.9322","MEAN_MOTION_DDOT":"0.0000000000000","SEMIMAJOR_AXIS":"6925.354","OBJECT_TYPE":"PAYLOAD","NORAD_CAT_ID":"45404","RCS_SIZE":"LARGE","SITE":"AFETR","INCLINATION":"53.0568","EPOCH":"2022-06-30T21:06:28.906272","ELEMENT_SET_NO":"999","DECAY_DATE":null,"TLE_LINE1":"1 45404U 20019AW  22181.87950123  .00001776  00000-0  13810-3 0  9995","PERIOD":"95.592","OBJECT_ID":"2020-019AW","APOAPSIS":"548.304","GP_ID":"207175300","TIME_SYSTEM":"UTC","EPHEMERIS_TYPE":"0","OBJECT_NAME":"STARLINK-1260","PERIAPSIS":"546.134","COUNTRY_CODE":"US","MEAN_ELEMENT_THEORY":"SGP4","BSTAR":"0.00013810000000","MEAN_MOTION_DOT":"0.00001776"},{"NORAD_CAT_ID":"45405","RCS_SIZE":"LARGE","SITE":"AFETR","SEMIMAJOR_AXIS":"6925.383","OBJECT_TYPE":"PAYLOAD","MEAN_MOTION_DDOT":"0.0000000000000","ARG_OF_PERICENTER":"80.8125","REV_AT_EPOCH":"12671","LAUNCH_DATE":"2020-03-18","CLASSIFICATION_TYPE":"U","TLE_LINE2":"2 45405  53.0567  67.2425 0001500  80.8125 279.3033 15.06388631126717","MEAN_MOTION":"15.06388631","RA_OF_ASC_NODE":"67.2425","ECCENTRICITY":"0.00015000","FILE":"3505946","REF_FRAME":"TEME","CENTER_NAME":"EARTH","MEAN_ANOMALY":"279.3033","MEAN_MOTION_DOT":"0.00001767","COUNTRY_CODE":"US","BSTAR":"0.00013751000000","MEAN_ELEMENT_THEORY":"SGP4","TIME_SYSTEM":"UTC","EPHEMERIS_TYPE":"0","OBJECT_NAME":"STARLINK-1263","GP_ID":"207174050","PERIAPSIS":"546.210","TLE_LINE1":"1 45405U 20019AX  22181.86477198  .00001767  00000-0  13751-3 0  9995","DECAY_DATE":null,"APOAPSIS":"548.287","OBJECT_ID":"2020-019AX","PERIOD":"95.593","ELEMENT_SET_NO":"999","INCLINATION":"53.0567","EPOCH":"2022-06-30T20:45:16.299072"},{"PERIAPSIS":"545.996","GP_ID":"207174300","EPHEMERIS_TYPE":"0","TIME_SYSTEM":"UTC","OBJECT_NAME":"STARLINK-1265","MEAN_ELEMENT_THEORY":"SGP4","BSTAR":"0.00012332000000","COUNTRY_CODE":"US","MEAN_MOTION_DOT":"0.00001556","EPOCH":"2022-06-30T20:55:52.120128","INCLINATION":"53.0557","ELEMENT_SET_NO":"999","PERIOD":"95.592","OBJECT_ID":"2020-019AY","APOAPSIS":"548.424","DECAY_DATE":null,"TLE_LINE1":"1 45406U 20019AY  22181.87213102  .00001556  00000-0  12332-3 0  9990","MEAN_MOTION_DDOT":"0.0000000000000","OBJECT_TYPE":"PAYLOAD","SEMIMAJOR_AXIS":"6925.345","RCS_SIZE":"LARGE","SITE":"AFETR","NORAD_CAT_ID":"45406","CENTER_NAME":"EARTH","MEAN_ANOMALY":"293.9090","REF_FRAME":"TEME","FILE":"3505946","ECCENTRICITY":"0.00017530","RA_OF_ASC_NODE":"67.1949","MEAN_MOTION":"15.06401295","TLE_LINE2":"2 45406  53.0557  67.1949 0001753  66.2083 293.9090 15.06401295126715","LAUNCH_DATE":"2020-03-18","CLASSIFICATION_TYPE":"U","REV_AT_EPOCH":"12671","ARG_OF_PERICENTER":"66.2083"},{"COUNTRY_CODE":"US","BSTAR":"0.00006245000000","MEAN_ELEMENT_THEORY":"SGP4","EPHEMERIS_TYPE":"0","TIME_SYSTEM":"UTC","OBJECT_NAME":"STARLINK-1275","GP_ID":"207175052","PERIAPSIS":"546.149","MEAN_MOTION_DOT":"0.00000649","ELEMENT_SET_NO":"999","INCLINATION":"53.0561","EPOCH":"2022-06-30T21:15:44.667360","TLE_LINE1":"1 45407U 20019AZ  22181.88593365  .00000649  00000-0  62450-4 0  9993","DECAY_DATE":null,"APOAPSIS":"548.329","OBJECT_ID":"2020-019AZ","PERIOD":"95.593","MEAN_MOTION_DDOT":"0.0000000000000","NORAD_CAT_ID":"45407","SITE":"AFETR","RCS_SIZE":"LARGE","SEMIMAJOR_AXIS":"6925.374","OBJECT_TYPE":"PAYLOAD","ECCENTRICITY":"0.00015740","FILE":"3505946","REF_FRAME":"TEME","MEAN_ANOMALY":"277.6431","CENTER_NAME":"EARTH","ARG_OF_PERICENTER":"82.4736","REV_AT_EPOCH":"12671","CLASSIFICATION_TYPE":"U","LAUNCH_DATE":"2020-03-18","MEAN_MOTION":"15.06391631","TLE_LINE2":"2 45407  53.0561  67.1529 0001574  82.4736 277.6431 15.06391631126711","RA_OF_ASC_NODE":"67.1529"},{"DECAY_DATE":null,"TLE_LINE1":"1 45408U 20019BA  22181.76615860  .00001989  00000-0  15242-3 0  9990","PERIOD":"95.592","OBJECT_ID":"2020-019BA","APOAPSIS":"548.327","ELEMENT_SET_NO":"999","INCLINATION":"53.0565","EPOCH":"2022-06-30T18:23:16.103040","MEAN_MOTION_DOT":"0.00001989","COUNTRY_CODE":"US","MEAN_ELEMENT_THEORY":"SGP4","BSTAR":"0.00015242000000","GP_ID":"207174801","OBJECT_NAME":"STARLINK-1278","EPHEMERIS_TYPE":"0","TIME_SYSTEM":"UTC","PERIAPSIS":"546.108","REV_AT_EPOCH":"12628","ARG_OF_PERICENTER":"71.6339","LAUNCH_DATE":"2020-03-18","CLASSIFICATION_TYPE":"U","RA_OF_ASC_NODE":"97.6706","TLE_LINE2":"2 45408  53.0565  97.6706 0001602  71.6339 288.4824 15.06398827126284","MEAN_MOTION":"15.06398827","ECCENTRICITY":"0.00016020","REF_FRAME":"TEME","FILE":"3505946","CENTER_NAME":"EARTH","MEAN_ANOMALY":"288.4824","NORAD_CAT_ID":"45408","SITE":"AFETR","RCS_SIZE":"LARGE","SEMIMAJOR_AXIS":"6925.352","OBJECT_TYPE":"PAYLOAD","MEAN_MOTION_DDOT":"0.0000000000000"},{"MEAN_MOTION_DDOT":"0.0000000000000","NORAD_CAT_ID":"45409","RCS_SIZE":"LARGE","SITE":"AFETR","SEMIMAJOR_AXIS":"6925.384","OBJECT_TYPE":"PAYLOAD","ECCENTRICITY":"0.00017950","REF_FRAME":"TEME","FILE":"3505946","CENTER_NAME":"EARTH","MEAN_ANOMALY":"285.6362","REV_AT_EPOCH":"12672","ARG_OF_PERICENTER":"74.4825","CLASSIFICATION_TYPE":"U","LAUNCH_DATE":"2020-03-18","RA_OF_ASC_NODE":"67.0976","TLE_LINE2":"2 45409  53.0573  67.0976 0001795  74.4825 285.6362 15.06388481126728","MEAN_MOTION":"15.06388481","COUNTRY_CODE":"US","MEAN_ELEMENT_THEORY":"SGP4","BSTAR":"0.00004085600000","GP_ID":"207173551","EPHEMERIS_TYPE":"0","TIME_SYSTEM":"UTC","OBJECT_NAME":"STARLINK-1282","PERIAPSIS":"546.006","MEAN_MOTION_DOT":"0.00000327","ELEMENT_SET_NO":"999","INCLINATION":"53.0573","EPOCH":"2022-06-30T21:27:43.417728","DECAY_DATE":null,"TLE_LINE1":"1 45409U 20019BB  22181.89425252  .00000327  00000-0  40856-4 0  9994","PERIOD":"95.593","APOAPSIS":"548.492","OBJECT_ID":"2020-019BB"},{"MEAN_MOTION_DDOT":"0.0000000000000","OBJECT_TYPE":"PAYLOAD","SEMIMAJOR_AXIS":"6925.369","SITE":"AFETR","RCS_SIZE":"LARGE","NORAD_CAT_ID":"45411","CENTER_NAME":"EARTH","MEAN_ANOMALY":"281.0576","FILE":"3505946","REF_FRAME":"TEME","ECCENTRICITY":"0.00017270","MEAN_MOTION":"15.06393484","TLE_LINE2":"2 45411  53.0558  67.0298 0001727  79.0607 281.0576 15.06393484126743","RA_OF_ASC_NODE":"67.0298","LAUNCH_DATE":"2020-03-18","CLASSIFICATION_TYPE":"U","ARG_OF_PERICENTER":"79.0607","REV_AT_EPOCH":"12674","PERIAPSIS":"546.038","OBJECT_NAME":"STARLINK-1293","EPHEMERIS_TYPE":"0","TIME_SYSTEM":"UTC","GP_ID":"207173801","BSTAR":"0.00004899300000","MEAN_ELEMENT_THEORY":"SGP4","COUNTRY_CODE":"US","MEAN_MOTION_DOT":"0.00000448","EPOCH":"2022-06-30T21:48:57.803040","INCLINATION":"53.0558","ELEMENT_SET_NO":"999","APOAPSIS":"548.430","OBJECT_ID":"2020-019BD","PERIOD":"95.593","TLE_LINE1":"1 45411U 20019BD  22181.90900235  .00000448  00000-0  48993-4 0  9992","DECAY_DATE":null},{"ARG_OF_PERICENTER":"67.4919","REV_AT_EPOCH":"12671","LAUNCH_DATE":"2020-03-18","CLASSIFICATION_TYPE":"U","TLE_LINE2":"2 45412  53.0544  67.1875 0001572  67.4919 292.6236 15.06397239126716","MEAN_MOTION":"15.06397239","RA_OF_ASC_NODE":"67.1875","ECCENTRICITY":"0.00015720","FILE":"3505946","REF_FRAME":"TEME","MEAN_ANOMALY":"292.6236","CENTER_NAME":"EARTH","NORAD_CAT_ID":"45412","RCS_SIZE":"LARGE","SITE":"AFETR","SEMIMAJOR_AXIS":"6925.357","OBJECT_TYPE":"PAYLOAD","MEAN_MOTION_DDOT":"0.0000000000000","TLE_LINE1":"1 45412U 20019BE  22181.87582002  .00000911  00000-0  80082-4 0  9997","DECAY_DATE":null,"APOAPSIS":"548.311","OBJECT_ID":"2020-019BE","PERIOD":"95.592","ELEMENT_SET_NO":"999","INCLINATION":"53.0544","EPOCH":"2022-06-30T21:01:10.849728","MEAN_MOTION_DOT":"0.00000911","COUNTRY_CODE":"US","BSTAR":"0.00008008200000","MEAN_ELEMENT_THEORY":"SGP4","OBJECT_NAME":"STARLINK-1296","EPHEMERIS_TYPE":"0","TIME_SYSTEM":"UTC","GP_ID":"207174553","PERIAPSIS":"546.133"}];
